ORBCOMM-X               
1 21576U 91050C   25220.78851283  .00000303  00000+0  10257-3 0  9992
2 21576  98.3404 286.3091 0004287  43.7684 316.3846 14.43295595789926
ORBCOMM FM01            
1 23545U 95017A   25220.62003405  .00004283  00000+0  44567-3 0  9997
2 23545  69.9645 303.3422 0005652 253.8903 106.1630 14.90565520620322
ORBCOMM FM02            
1 23546U 95017B   25220.66500921  .00006636  00000+0  66892-3 0  9996
2 23546  69.9667 322.4438 0006891 249.9300 110.1113 14.91542835620280
ORBCOMM FM08            
1 25112U 97084A   25220.20913613  .00001197  00000+0  37357-3 0  9990
2 25112  45.0138 118.1123 0005158 144.4184 215.7013 14.45941091448908
ORBCOMM FM10            
1 25113U 97084B   25220.19796629  .00001179  00000+0  37036-3 0  9999
2 25113  45.0150 120.6380 0004210 100.3722 259.7604 14.45722917624042
ORBCOMM FM11            
1 25114U 97084C   25220.14242569  .00001233  00000+0  38719-3 0  9994
2 25114  45.0136 121.6319 0004941 104.2730 255.8670 14.45471211448999
ORBCOMM FM12            
1 25115U 97084D   25220.24236855  .00001075  00000+0  34270-3 0  9999
2 25115  45.0142 120.8969 0004098  98.2438 261.8878 14.45492673448801
ORBCOMM FM09            
1 25116U 97084E   25220.00272678  .00001147  00000+0  36399-3 0  9991
2 25116  45.0146 123.0314 0005554  90.1692 269.9796 14.45366198448974
